window.SAT=[["STARLINK-1008", "1 44714C 19074B   26200.67270833  .00087612  00000+0  13291-2 0  2003", "2 44714  53.1487 272.7136 0005283 337.5285 234.3343 15.53934246    14", "2019-11-11", "Operational", "Cape Canaveral"], ["STARLINK-1039", "1 44744C 19074AH  26200.67270833  .00026664  00000+0  86443-3 0  2006", "2 44744  53.0580 323.7502 0001118 226.8559 292.0254 15.31425978    16", "2019-11-11", "Operational", "Cape Canaveral"], ["STARLINK-1048", "1 44753C 19074AS  26200.74562500 -.00000973  00000+0 -74059-5 0  2008", "2 44753  53.0410 241.8177 0000852 136.1258 220.9733 15.71605654    16", "2019-11-11", "Operational", "Cape Canaveral"], ["STARLINK-1123", "1 44930C 20001S   26200.70881944  .00048544  00000+0  49401-3 0  2004", "2 44930  53.1394  74.5049 0005807 100.0615 295.9361 15.64450903    12", "2020-01-07", "Operational", "Cape Canaveral"], ["STARLINK-1132", "1 45044C 20006A   26200.68451389  .00380480  00000+0  40261-2 0  2001", "2 45044  53.1491 339.8966 0001855  77.7643 142.4009 15.63317972    14", "2020-01-29", "Operational", "Cape Canaveral"], ["STARLINK-1169", "1 45061C 20006T   26200.72479167  .00010043  00000+0  23046-3 0  2007", "2 45061  53.1540  22.2477 0003998 105.0238 114.1057 15.42127202    14", "2020-01-29", "Operational", "Cape Canaveral"], ["STARLINK-1172", "1 45074C 20006AG  26200.72340278  .00008891  00000+0  20398-3 0  2006", "2 45074  53.1543 358.8335 0001840  83.0528 347.0397 15.42141906    14", "2020-01-29", "Operational", "Cape Canaveral"], ["STARLINK-1152", "1 45096C 20006BE  26200.68590278  .00082081  00000+0  12471-2 0  2007", "2 45096  53.0310 296.4766 0004303 308.5252 245.1737 15.53898430    19", "2020-01-29", "Operational", "Cape Canaveral"], ["STARLINK-1216", "1 45185C 20012H   26200.71229167  .00409510  00000+0  99361-2 0  2006", "2 45185  53.1540 142.9507 0001285  81.8010 185.8503 15.40260660    16", "2020-02-17", "Operational", "Cape Canaveral"], ["STARLINK-1154", "1 45198C 20012W   26200.69701389  .00041475  00000+0  38143-3 0  2002", "2 45198  53.0395  89.1388 0004135 107.3943  57.8680 15.66988049    12", "2020-02-17", "Operational", "Cape Canaveral"], ["STARLINK-1191", "1 45222C 20012AW  26200.71020833  .00037529  00000+0  83614-3 0  2009", "2 45222  53.1517  99.4585 0002602  55.8013  15.3975 15.42999486    19", "2020-02-17", "Operational", "Cape Canaveral"], ["STARLINK-1226", "1 45229C 20012BD  26200.68034722  .00056622  00000+0  10450-2 0  2006", "2 45229  53.1516  95.3353 0004693  73.7323 357.5731 15.48467414    16", "2020-02-17", "Operational", "Cape Canaveral"], ["STARLINK-1301", "1 45361C 20019B   26200.72062500  .00145420  00000+0  47131-3 0  2002", "2 45361  53.0288 165.8826 0005483  63.8370 164.1306 15.89957157    19", "2020-03-18", "Operational", "Cape Canaveral"], ["STARLINK-1281", "1 45370C 20019L   26200.66368056  .00068312  00000+0  17782-2 0  2002", "2 45370  53.1547 269.3360 0001873 311.8321  46.8716 15.38289329    16", "2020-03-18", "Operational", "Cape Canaveral"], ["STARLINK-1319", "1 45379C 20019V   26200.74215278  .00077214  00000+0  31492-3 0  2003", "2 45379  53.0334 192.5186 0003977  49.0015  86.6304 15.85368991    18", "2020-03-18", "Operational", "Cape Canaveral"], ["STARLINK-1280", "1 45388C 20019AE  26200.75534722  .00181960  00000+0  47310-3 0  2002", "2 45388  53.0293 182.7525 0005700  55.9384  11.0928 15.94164341    18", "2020-03-18", "Operational", "Cape Canaveral"], ["STARLINK-1255", "1 45399C 20019AR  26200.69701389  .00032821  00000+0  27247-3 0  2000", "2 45399  53.0314 177.4444 0001617   3.6830 130.0954 15.69501073    14", "2020-03-18", "Operational", "Cape Canaveral"], ["STARLINK-1296", "1 45412C 20019BE  26200.64006944  .00023725  00000+0  54289-3 0  2005", "2 45412  53.1521 230.7136 0001932 346.0777  30.6989 15.42212298    18", "2020-03-18", "Operational", "Cape Canaveral"], ["STARLINK-1329", "1 45531C 20025A   26200.72618056  .00105620  00000+0  57766-3 0  2004", "2 45531  53.0377 148.4336 0003560  47.4982 286.3997 15.79089327    18", "2020-04-22", "Operational", "Cape Canaveral"], ["STARLINK-1371", "1 45542C 20025M   26200.62895833  .00013292  00000+0  97448-4 0  2000", "2 45542  53.0399 167.5366 0002633  76.7551  46.1833 15.72467916    14", "2020-04-22", "Operational", "Cape Canaveral"], ["STARLINK-1357", "1 45565C 20025AL  26200.68173611  .00079033  00000+0  53634-3 0  2007", "2 45565  53.0411 108.9312 0001444 238.5691 200.7250 15.74239755    17", "2020-04-22", "Operational", "Cape Canaveral"], ["STARLINK-1331", "1 45578C 20025AZ  26200.75951389  .00075639  00000+0  54619-3 0  2007", "2 45578  53.0425 141.7215 0001960 101.1406  49.9738 15.72795374    11", "2020-04-22", "Operational", "Cape Canaveral"], ["STARLINK-1364", "1 45589C 20025BL  26200.69770833  .00091279  00000+0  62943-3 0  2002", "2 45589  53.0382 137.8221 0004208  73.0176 165.7601 15.73851458    10", "2020-04-22", "Operational", "Cape Canaveral"], ["STARLINK-1451", "1 45668C 20035M   26200.69493056 -.00005165  00000+0 -26539-3 0  2002", "2 45668  53.0511 187.2091 0002670  27.8790 226.3575 15.15970372    13", "2020-06-04", "Operational", "Cape Canaveral"], ["STARLINK-1458", "1 45675C 20035U   26200.73868056  .00077181  00000+0  65865-3 0  2001", "2 45675  53.0420 138.6443 0001841  92.1955  90.6025 15.68810748    18", "2020-06-04", "Operational", "Cape Canaveral"], ["STARLINK-1404", "1 45686C 20035AF  26200.72687500  .00074230  00000+0  13738-2 0  2008", "2 45686  53.1536 146.0043 0004530  29.6786 348.9621 15.48378862    18", "2020-06-04", "Operational", "Cape Canaveral"], ["STARLINK-1351", "1 45697C 20035AS  26200.73312500  .00041591  00000+0  33290-3 0  2006", "2 45697  53.0406  95.6992 0000821  37.0343  60.2765 15.70375564    12", "2020-06-04", "Operational", "Cape Canaveral"], ["STARLINK-1433", "1 45711C 20035BG  26200.75118056  .00057822  00000+0  30772-3 0  2001", "2 45711  53.0408  91.1630 0001490 189.6206 327.7853 15.79723030    19", "2020-06-04", "Operational", "Cape Canaveral"], ["STARLINK-1500", "1 45744C 20038Q   26200.68868056  .00061072  00000+0  14478-2 0  2000", "2 45744  53.0349 290.4347 0002880 345.5416 234.3559 15.41127174    10", "2020-06-13", "Operational", "Cape Canaveral"], ["STARLINK-1478", "1 45755C 20038AB  26200.68173611  .00082860  00000+0  52698-3 0  2003", "2 45755  53.0426 269.4492 0004238  13.3786 207.1075 15.75715138    15", "2020-06-13", "Operational", "Cape Canaveral"], ["STARLINK-1496", "1 45780C 20038BC  26200.72826389  .00026528  00000+0  18279-3 0  2009", "2 45780  53.0410 253.6113 0006493  13.2126  18.6205 15.73883630    14", "2020-06-13", "Operational", "Cape Canaveral"], ["STARLINK-1555", "1 46032C 20055F   26200.64354167 -.00005610  00000+0 -18041-3 0  2008", "2 46032  53.1577 233.4514 0001284  53.3506 181.8998 15.31704482    14", "2020-08-07", "Operational", "Cape Canaveral"], ["STARLINK-1569", "1 46039C 20055N   26200.66715278 -.00013580  00000+0 -43672-3 0  2004", "2 46039  53.1570 233.3297 0001162  69.9517 321.2906 15.31706885    19", "2020-08-07", "Operational", "Cape Canaveral"], ["STARLINK-1540", "1 46051C 20055AA  26200.69423611 -.00032791  00000+0 -10546-2 0  2006", "2 46051  53.1558 219.9997 0001036  76.7378 328.6369 15.31715275    14", "2020-08-07", "Operational", "Cape Canaveral"], ["STARLINK-1564", "1 46058C 20055AH  26200.74562500 -.00032695  00000+0 -11020-2 0  2001", "2 46058  53.1566 220.9837 0000885  67.6410 271.4672 15.30206478    13", "2020-08-07", "Operational", "Cape Canaveral"], ["STARLINK-1583", "1 46064C 20055AP  26200.71854167 -.00032783  00000+0 -10542-2 0  2004", "2 46064  53.1584 220.0581 0001467  68.5439 342.2348 15.31719694    12", "2020-08-07", "Operational", "Cape Canaveral"], ["STARLINK-1551", "1 46075C 20055BA  26200.71159722 -.00027209  00000+0 -87498-3 0  2003", "2 46075  53.1577 207.4126 0001250  88.1474 326.8478 15.31715174    18", "2020-08-07", "Operational", "Cape Canaveral"], ["STARLINK-1578", "1 46082C 20055BH  26200.67201389 -.00036140  00000+0 -11623-2 0  2003", "2 46082  53.1578 207.5515 0001144  86.6387 137.5722 15.31715796    17", "2020-08-07", "Operational", "Cape Canaveral"], ["STARLINK-1597", "1 46142C 20057AB  26200.71090278  .00138760  00000+0  53062-3 0  2003", "2 46142  53.0366   3.7645 0005444 277.8034  43.8148 15.86650582    10", "2020-08-18", "Operational", "Cape Canaveral"], ["STARLINK-1633", "1 46171C 20057BG  26200.72618056  .00591610  00000+0  64484-3 0  2003", "2 46171  53.0252 319.0001 0014775 326.3026 230.6774 16.08526553    19", "2020-08-18", "Operational", "Cape Canaveral"], ["STARLINK-1759", "1 46340C 20062S   26199.99909722  .05662500  00000+0  11845-2 0  1997", "2 46340  52.9970  32.2013 0015949 287.1077 289.5447 16.29740823    14", "2020-09-03", "Operational", "Cape Canaveral"], ["STARLINK-1656", "1 46353C 20062AF  26200.68381944  .00098891  00000+0  54063-3 0  2004", "2 46353  53.0387  71.5678 0002947 236.2560 274.9738 15.79105966    19", "2020-09-03", "Operational", "Cape Canaveral"], ["STARLINK-1771", "1 46384C 20062BN  26200.73937500  .00001277  00000+0  11513-4 0  2005", "2 46384  53.0364  65.3447 0000815 154.5245 151.7517 15.67513191    14", "2020-09-03", "Operational", "Cape Canaveral"], ["STARLINK-1714", "1 46562C 20070AG  26200.75604167  .00145260  00000+0  68714-3 0  2009", "2 46562  53.0327 186.8470 0003514  38.7991 269.6324 15.82220807    17", "2020-10-06", "Operational", "Cape Canaveral"], ["STARLINK-1788", "1 46689C 20073V   26199.20256944  .06210800  00000+0  12803-2 0  1998", "2 46689  53.0149 283.0151 0013615 323.7336 258.3685 16.30010726    14", "?", "Unknown", "?"], ["STARLINK-1810", "1 46709C 20073AR  26200.67895833  .00115110  00000+0  89752-3 0  2004", "2 46709  53.0377 310.0873 0002496 303.7749 258.9978 15.70960032    11", "2020-10-18", "Operational", "Cape Canaveral"], ["STARLINK-1830", "1 46727C 20073BK  26200.67687500  .00157570  00000+0  55942-3 0  2004", "2 46727  53.0303 250.8775 0011265   3.3691  32.3176 15.88056830    10", "2020-10-18", "Operational", "Cape Canaveral"]];